ONEWEB-0392             
1 50472U 21132D   25227.81719288 -.00000006  00000+0 -48498-4 0  9993
2 50472  87.9030  66.6011 0001880 100.1110 260.0233 13.17648411177904
ONEWEB-0393             
1 50473U 21132E   25228.24592239 -.00000026  00000+0 -10000-3 0  9996
2 50473  87.9033  66.5349 0001813  93.6460 266.4878 13.17651280179243
ONEWEB-0394             
1 50474U 21132F   25228.37780583  .00000066  00000+0  13377-3 0  9994
2 50474  87.9141  35.9750 0001920  95.7251 264.4100 13.18685242182695
ONEWEB-0395             
1 50475U 21132G   25228.28515008  .00000376  00000+0  10237-2 0  9998
2 50475  87.8781  81.8470 0001605  92.9195 267.2117 13.11413925177020
ONEWEB-0396             
1 50476U 21132H   25227.76419760  .00000025  00000+0  30126-4 0  9991
2 50476  87.9138  36.1095 0001880  94.8566 265.2781 13.18685481181386
ONEWEB-0397             
1 50477U 21132J   25228.38604723  .00000050  00000+0  94150-4 0  9991
2 50477  87.9140  35.9866 0001996  92.2426 267.8935 13.18687039182716
ONEWEB-0398             
1 50478U 21132K   25227.87144577 -.00000096  00000+0 -30642-3 0  9998
2 50478  87.8793  81.8928 0001296  82.8680 277.2595 13.11417774175594
ONEWEB-0399             
1 50479U 21132L   25227.85787378 -.00000487  00000+0 -14094-2 0  9995
2 50479  87.8783  81.9196 0002033  88.5164 271.6196 13.11417172175588
ONEWEB-0400             
1 50480U 21132M   25228.44048036 -.00000002  00000+0 -38851-4 0  9996
2 50480  87.9134  35.9660 0001627  93.7753 266.3565 13.18687460182727
ONEWEB-0401             
1 50481U 21132N   25227.87801111  .00000063  00000+0  12663-3 0  9991
2 50481  87.9139  36.0740 0001999  88.8476 271.2885 13.18684907181376
ONEWEB-0402             
1 50482U 21132P   25227.91760422  .00000009  00000+0 -90671-5 0  9994
2 50482  87.9139  36.0598 0002350  84.2714 275.8686 13.18686639181402
ONEWEB-0403             
1 50483U 21132Q   25227.94234590  .00000066  00000+0  13406-3 0  9991
2 50483  87.9139  36.0734 0001824  95.5822 264.5518 13.18686735181366
ONEWEB-0404             
1 50484U 21132R   25228.29700696 -.00000088  00000+0 -28528-3 0  9993
2 50484  87.8786  81.8368 0001840  95.5785 264.5553 13.11413915177007
ONEWEB-0405             
1 50485U 21132S   25227.88129662  .00000073  00000+0  15351-3 0  9998
2 50485  87.9137  36.0719 0002120  90.2743 269.8632 13.18685544181758
ONEWEB-0406             
1 50486U 21132T   25228.40254951  .00000072  00000+0  14864-3 0  9995
2 50486  87.9141  35.9907 0001621 110.3764 249.7542 13.18686974182748
ONEWEB-0407             
1 50487U 21132U   25228.39594805  .00000031  00000+0  45688-4 0  9993
2 50487  87.9141  35.9771 0001943  92.6269 267.5085 13.18684830182689
ONEWEB-0409             
1 50488U 21132V   25227.83752938 -.00000119  00000+0 -37110-3 0  9994
2 50488  87.8779  81.8883 0001574  94.3070 265.8238 13.11413644175565
