[{"OBJECT_NAME":"ONEWEB-0392","OBJECT_ID":"2021-132D","EPOCH":"2025-08-15T19:36:45.464832","MEAN_MOTION":13.17648411,"ECCENTRICITY":0.000188,"INCLINATION":87.903,"RA_OF_ASC_NODE":66.6011,"ARG_OF_PERICENTER":100.111,"MEAN_ANOMALY":260.0233,"EPHEMERIS_TYPE":0,"CLASSIFICATION_TYPE":"U","NORAD_CAT_ID":50472,"ELEMENT_SET_NO":999,"REV_AT_EPOCH":17790,"BSTAR":-4.8498e-5,"MEAN_MOTION_DOT":-6.0e-8,"MEAN_MOTION_DDOT":0},{"OBJECT_NAME":"ONEWEB-0393","OBJECT_ID":"2021-132E","EPOCH":"2025-08-16T05:54:07.694496","MEAN_MOTION":13.1765128,"ECCENTRICITY":0.0001813,"INCLINATION":87.9033,"RA_OF_ASC_NODE":66.5349,"ARG_OF_PERICENTER":93.646,"MEAN_ANOMALY":266.4878,"EPHEMERIS_TYPE":0,"CLASSIFICATION_TYPE":"U","NORAD_CAT_ID":50473,"ELEMENT_SET_NO":999,"REV_AT_EPOCH":17924,"BSTAR":-0.0001,"MEAN_MOTION_DOT":-2.6e-7,"MEAN_MOTION_DDOT":0},{"OBJECT_NAME":"ONEWEB-0394","OBJECT_ID":"2021-132F","EPOCH":"2025-08-16T09:04:02.423712","MEAN_MOTION":13.18685242,"ECCENTRICITY":0.000192,"INCLINATION":87.9141,"RA_OF_ASC_NODE":35.975,"ARG_OF_PERICENTER":95.7251,"MEAN_ANOMALY":264.41,"EPHEMERIS_TYPE":0,"CLASSIFICATION_TYPE":"U","NORAD_CAT_ID":50474,"ELEMENT_SET_NO":999,"REV_AT_EPOCH":18269,"BSTAR":0.00013377,"MEAN_MOTION_DOT":6.6e-7,"MEAN_MOTION_DDOT":0},{"OBJECT_NAME":"ONEWEB-0395","OBJECT_ID":"2021-132G","EPOCH":"2025-08-16T06:50:36.966912","MEAN_MOTION":13.11413925,"ECCENTRICITY":0.0001605,"INCLINATION":87.8781,"RA_OF_ASC_NODE":81.847,"ARG_OF_PERICENTER":92.9195,"MEAN_ANOMALY":267.2117,"EPHEMERIS_TYPE":0,"CLASSIFICATION_TYPE":"U","NORAD_CAT_ID":50475,"ELEMENT_SET_NO":999,"REV_AT_EPOCH":17702,"BSTAR":0.0010237,"MEAN_MOTION_DOT":3.76e-6,"MEAN_MOTION_DDOT":0},{"OBJECT_NAME":"ONEWEB-0396","OBJECT_ID":"2021-132H","EPOCH":"2025-08-15T18:20:26.672640","MEAN_MOTION":13.18685481,"ECCENTRICITY":0.000188,"INCLINATION":87.9138,"RA_OF_ASC_NODE":36.1095,"ARG_OF_PERICENTER":94.8566,"MEAN_ANOMALY":265.2781,"EPHEMERIS_TYPE":0,"CLASSIFICATION_TYPE":"U","NORAD_CAT_ID":50476,"ELEMENT_SET_NO":999,"REV_AT_EPOCH":18138,"BSTAR":3.0126e-5,"MEAN_MOTION_DOT":2.5e-7,"MEAN_MOTION_DDOT":0},{"OBJECT_NAME":"ONEWEB-0397","OBJECT_ID":"2021-132J","EPOCH":"2025-08-16T09:15:54.480672","MEAN_MOTION":13.18687039,"ECCENTRICITY":0.0001996,"INCLINATION":87.914,"RA_OF_ASC_NODE":35.9866,"ARG_OF_PERICENTER":92.2426,"MEAN_ANOMALY":267.8935,"EPHEMERIS_TYPE":0,"CLASSIFICATION_TYPE":"U","NORAD_CAT_ID":50477,"ELEMENT_SET_NO":999,"REV_AT_EPOCH":18271,"BSTAR":9.415e-5,"MEAN_MOTION_DOT":5.0e-7,"MEAN_MOTION_DDOT":0},{"OBJECT_NAME":"ONEWEB-0398","OBJECT_ID":"2021-132K","EPOCH":"2025-08-15T20:54:52.914528","MEAN_MOTION":13.11417774,"ECCENTRICITY":0.0001296,"INCLINATION":87.8793,"RA_OF_ASC_NODE":81.8928,"ARG_OF_PERICENTER":82.868,"MEAN_ANOMALY":277.2595,"EPHEMERIS_TYPE":0,"CLASSIFICATION_TYPE":"U","NORAD_CAT_ID":50478,"ELEMENT_SET_NO":999,"REV_AT_EPOCH":17559,"BSTAR":-0.00030642,"MEAN_MOTION_DOT":-9.6e-7,"MEAN_MOTION_DDOT":0},{"OBJECT_NAME":"ONEWEB-0399","OBJECT_ID":"2021-132L","EPOCH":"2025-08-15T20:35:20.294592","MEAN_MOTION":13.11417172,"ECCENTRICITY":0.0002033,"INCLINATION":87.8783,"RA_OF_ASC_NODE":81.9196,"ARG_OF_PERICENTER":88.5164,"MEAN_ANOMALY":271.6196,"EPHEMERIS_TYPE":0,"CLASSIFICATION_TYPE":"U","NORAD_CAT_ID":50479,"ELEMENT_SET_NO":999,"REV_AT_EPOCH":17558,"BSTAR":-0.0014094,"MEAN_MOTION_DOT":-4.87e-6,"MEAN_MOTION_DDOT":0},{"OBJECT_NAME":"ONEWEB-0400","OBJECT_ID":"2021-132M","EPOCH":"2025-08-16T10:34:17.503104","MEAN_MOTION":13.1868746,"ECCENTRICITY":0.0001627,"INCLINATION":87.9134,"RA_OF_ASC_NODE":35.966,"ARG_OF_PERICENTER":93.7753,"MEAN_ANOMALY":266.3565,"EPHEMERIS_TYPE":0,"CLASSIFICATION_TYPE":"U","NORAD_CAT_ID":50480,"ELEMENT_SET_NO":999,"REV_AT_EPOCH":18272,"BSTAR":-3.8851e-5,"MEAN_MOTION_DOT":-2.0e-8,"MEAN_MOTION_DDOT":0},{"OBJECT_NAME":"ONEWEB-0401","OBJECT_ID":"2021-132N","EPOCH":"2025-08-15T21:04:20.159904","MEAN_MOTION":13.18684907,"ECCENTRICITY":0.0001999,"INCLINATION":87.9139,"RA_OF_ASC_NODE":36.074,"ARG_OF_PERICENTER":88.8476,"MEAN_ANOMALY":271.2885,"EPHEMERIS_TYPE":0,"CLASSIFICATION_TYPE":"U","NORAD_CAT_ID":50481,"ELEMENT_SET_NO":999,"REV_AT_EPOCH":18137,"BSTAR":0.00012663,"MEAN_MOTION_DOT":6.3e-7,"MEAN_MOTION_DDOT":0},{"OBJECT_NAME":"ONEWEB-0402","OBJECT_ID":"2021-132P","EPOCH":"2025-08-15T22:01:21.004608","MEAN_MOTION":13.18686639,"ECCENTRICITY":0.000235,"INCLINATION":87.9139,"RA_OF_ASC_NODE":36.0598,"ARG_OF_PERICENTER":84.2714,"MEAN_ANOMALY":275.8686,"EPHEMERIS_TYPE":0,"CLASSIFICATION_TYPE":"U","NORAD_CAT_ID":50482,"ELEMENT_SET_NO":999,"REV_AT_EPOCH":18140,"BSTAR":-9.0671e-6,"MEAN_MOTION_DOT":9.0e-8,"MEAN_MOTION_DDOT":0},{"OBJECT_NAME":"ONEWEB-0403","OBJECT_ID":"2021-132Q","EPOCH":"2025-08-15T22:36:58.685760","MEAN_MOTION":13.18686735,"ECCENTRICITY":0.0001824,"INCLINATION":87.9139,"RA_OF_ASC_NODE":36.0734,"ARG_OF_PERICENTER":95.5822,"MEAN_ANOMALY":264.5518,"EPHEMERIS_TYPE":0,"CLASSIFICATION_TYPE":"U","NORAD_CAT_ID":50483,"ELEMENT_SET_NO":999,"REV_AT_EPOCH":18136,"BSTAR":0.00013406,"MEAN_MOTION_DOT":6.6e-7,"MEAN_MOTION_DDOT":0},{"OBJECT_NAME":"ONEWEB-0404","OBJECT_ID":"2021-132R","EPOCH":"2025-08-16T07:07:41.401344","MEAN_MOTION":13.11413915,"ECCENTRICITY":0.000184,"INCLINATION":87.8786,"RA_OF_ASC_NODE":81.8368,"ARG_OF_PERICENTER":95.5785,"MEAN_ANOMALY":264.5553,"EPHEMERIS_TYPE":0,"CLASSIFICATION_TYPE":"U","NORAD_CAT_ID":50484,"ELEMENT_SET_NO":999,"REV_AT_EPOCH":17700,"BSTAR":-0.00028528,"MEAN_MOTION_DOT":-8.8e-7,"MEAN_MOTION_DDOT":0},{"OBJECT_NAME":"ONEWEB-0405","OBJECT_ID":"2021-132S","EPOCH":"2025-08-15T21:09:04.027968","MEAN_MOTION":13.18685544,"ECCENTRICITY":0.000212,"INCLINATION":87.9137,"RA_OF_ASC_NODE":36.0719,"ARG_OF_PERICENTER":90.2743,"MEAN_ANOMALY":269.8632,"EPHEMERIS_TYPE":0,"CLASSIFICATION_TYPE":"U","NORAD_CAT_ID":50485,"ELEMENT_SET_NO":999,"REV_AT_EPOCH":18175,"BSTAR":0.00015351,"MEAN_MOTION_DOT":7.3e-7,"MEAN_MOTION_DDOT":0},{"OBJECT_NAME":"ONEWEB-0406","OBJECT_ID":"2021-132T","EPOCH":"2025-08-16T09:39:40.277664","MEAN_MOTION":13.18686974,"ECCENTRICITY":0.0001621,"INCLINATION":87.9141,"RA_OF_ASC_NODE":35.9907,"ARG_OF_PERICENTER":110.3764,"MEAN_ANOMALY":249.7542,"EPHEMERIS_TYPE":0,"CLASSIFICATION_TYPE":"U","NORAD_CAT_ID":50486,"ELEMENT_SET_NO":999,"REV_AT_EPOCH":18274,"BSTAR":0.00014864,"MEAN_MOTION_DOT":7.2e-7,"MEAN_MOTION_DDOT":0},{"OBJECT_NAME":"ONEWEB-0407","OBJECT_ID":"2021-132U","EPOCH":"2025-08-16T09:30:09.911520","MEAN_MOTION":13.1868483,"ECCENTRICITY":0.0001943,"INCLINATION":87.9141,"RA_OF_ASC_NODE":35.9771,"ARG_OF_PERICENTER":92.6269,"MEAN_ANOMALY":267.5085,"EPHEMERIS_TYPE":0,"CLASSIFICATION_TYPE":"U","NORAD_CAT_ID":50487,"ELEMENT_SET_NO":999,"REV_AT_EPOCH":18268,"BSTAR":4.5688e-5,"MEAN_MOTION_DOT":3.1e-7,"MEAN_MOTION_DDOT":0},{"OBJECT_NAME":"ONEWEB-0409","OBJECT_ID":"2021-132V","EPOCH":"2025-08-15T20:06:02.538432","MEAN_MOTION":13.11413644,"ECCENTRICITY":0.0001574,"INCLINATION":87.8779,"RA_OF_ASC_NODE":81.8883,"ARG_OF_PERICENTER":94.307,"MEAN_ANOMALY":265.8238,"EPHEMERIS_TYPE":0,"CLASSIFICATION_TYPE":"U","NORAD_CAT_ID":50488,"ELEMENT_SET_NO":999,"REV_AT_EPOCH":17556,"BSTAR":-0.0003711,"MEAN_MOTION_DOT":-1.19e-6,"MEAN_MOTION_DDOT":0}]
